ONEWEB-0612             
1 54675U 22166AK  23227.07771985  .00000034  00000+0  51305-4 0  9998
2 54675  87.9189  90.4862 0001961  71.8653 288.2695 13.21822518 34894
ONEWEB-0615             
1 54676U 22166AL  23228.11854785  .00000122  00000+0  26496-3 0  9995
2 54676  87.9201  90.2851 0001578  77.7954 282.3356 13.21833352 35044
ONEWEB-0655             
1 54677U 22166AM  23228.09333415  .00000077  00000+0  15593-3 0  9990
2 54677  87.9204  90.2981 0001758  78.0691 282.0640 13.21826284 35032
ONEWEB-0659             
1 54678U 22166AN  23227.12608260  .00000111  00000+0  23624-3 0  9990
2 54678  87.9171  90.5338 0002056  86.5279 273.6090 13.21823661 34998
ONEWEB-0685             
1 54679U 22166AP  23227.12818854  .00000139  00000+0  30505-3 0  9999
2 54679  87.9199  90.4837 0001185  49.5995 310.5242 13.21827954 34885
ONEWEB-0712             
1 54680U 22166AQ  23227.12166037  .00000087  00000+0  15955-3 0  9994
2 54680  87.9346  75.2006 0001874  82.9027 277.2325 13.29376877 36000
ONEWEB-0714             
1 54681U 22166AR  23227.13238702  .00000135  00000+0  29605-3 0  9996
2 54681  87.9191  90.4766 0001490  73.4769 286.6528 13.21824079 35005
ONEWEB-0532             
1 55140U 23004A   23227.82632647 -.00000062  00000+0 -15949-3 0  9998
2 55140  87.9702 211.7454 0002673 144.1079 216.0240 13.30870384 31060
